[{"OBJECT_NAME":"TRANSPORTER-12 OBJECT BR","OBJECT_ID":"2025-009BR","EPOCH":"2026-03-09T17:25:41.408544","MEAN_MOTION":15.22079833,"ECCENTRICITY":0.00038612,"INCLINATION":97.4001,"RA_OF_ASC_NODE":149.3786,"ARG_OF_PERICENTER":342.5368,"MEAN_ANOMALY":17.5735,"EPHEMERIS_TYPE":0,"CLASSIFICATION_TYPE":"U","NORAD_CAT_ID":62672,"ELEMENT_SET_NO":999,"REV_AT_EPOCH":12125,"BSTAR":0.00024627626,"MEAN_MOTION_DOT":5.568e-5,"MEAN_MOTION_DDOT":0},{"OBJECT_NAME":"FORGESTAR-1","OBJECT_ID":"2025-135U","EPOCH":"2026-03-09T20:36:20.241504","MEAN_MOTION":15.22632363,"ECCENTRICITY":0.00019317,"INCLINATION":97.456,"RA_OF_ASC_NODE":185.1959,"ARG_OF_PERICENTER":126.9955,"MEAN_ANOMALY":233.1458,"EPHEMERIS_TYPE":0,"CLASSIFICATION_TYPE":"U","NORAD_CAT_ID":64546,"ELEMENT_SET_NO":999,"REV_AT_EPOCH":3978,"BSTAR":0.0004351723,"MEAN_MOTION_DOT":0.00010058,"MEAN_MOTION_DDOT":0}]
